{
  "type": "FeatureCollection",
  "features": [
    {
      "type": "Feature",
      "properties": {
        "norad_id": 54741,
        "name": "GALAXY 35 (G-35)",
        "group": "intelsat",
        "lat": -0.005051624576283475,
        "lon": 135.52172143006788,
        "alt_km": 35793.19301052623,
        "timestamp": "2025-12-12T09:49:08.396011+00:00",
        "meta_object_name": "GALAXY 35 (G-35)",
        "meta_object_id": "2022-170A",
        "meta_epoch": "2025-12-12T02:45:56.123424",
        "meta_mean_motion": 1.00271243,
        "meta_eccentricity": 0.0002498,
        "meta_inclination": 0.0131,
        "meta_ra_of_asc_node": 266.2821,
        "meta_arg_of_pericenter": 0.3652,
        "meta_mean_anomaly": 122.8115,
        "meta_ephemeris_type": 0,
        "meta_classification_type": "U",
        "meta_norad_cat_id": 54741,
        "meta_element_set_no": 999,
        "meta_rev_at_epoch": 1101,
        "meta_bstar": 0,
        "meta_mean_motion_dot": -1.53e-06,
        "meta_mean_motion_ddot": 0,
        "tle_line1": "1 54741U 22170A   25346.11523291 -.00000153  00000+0  00000+0 0  9995",
        "tle_line2": "2 54741   0.0131 266.2821 0002498   0.3652 122.8115  1.00271243 11017"
      },
      "geometry": {
        "type": "Point",
        "coordinates": [
          135.52172143006788,
          -0.005051624576283475
        ]
      }
    },
    {
      "type": "Feature",
      "properties": {
        "norad_id": 54742,
        "name": "GALAXY 36 (G-36)",
        "group": "intelsat",
        "lat": 0.011333756874918827,
        "lon": 139.63567162466126,
        "alt_km": 35787.39137948464,
        "timestamp": "2025-12-12T09:49:08.396023+00:00",
        "meta_object_name": "GALAXY 36 (G-36)",
        "meta_object_id": "2022-170B",
        "meta_epoch": "2025-12-12T02:47:03.515424",
        "meta_mean_motion": 1.00272264,
        "meta_eccentricity": 3.87e-05,
        "meta_inclination": 0.0218,
        "meta_ra_of_asc_node": 94.7201,
        "meta_arg_of_pericenter": 195.8779,
        "meta_mean_anomaly": 103.2357,
        "meta_ephemeris_type": 0,
        "meta_classification_type": "U",
        "meta_norad_cat_id": 54742,
        "meta_element_set_no": 999,
        "meta_rev_at_epoch": 1089,
        "meta_bstar": 0,
        "meta_mean_motion_dot": -1.76e-06,
        "meta_mean_motion_ddot": 0,
        "tle_line1": "1 54742U 22170B   25346.11601291 -.00000176  00000+0  00000+0 0  9998",
        "tle_line2": "2 54742   0.0218  94.7201 0000387 195.8779 103.2357  1.00272264 10895"
      },
      "geometry": {
        "type": "Point",
        "coordinates": [
          139.63567162466126,
          0.011333756874918827
        ]
      }
    },
    {
      "type": "Feature",
      "properties": {
        "norad_id": 57493,
        "name": "GALAXY 37 (G-37)",
        "group": "intelsat",
        "lat": 0.023849502050707534,
        "lon": 101.63029876163321,
        "alt_km": 35794.942475482494,
        "timestamp": "2025-12-12T09:49:08.396035+00:00",
        "meta_object_name": "GALAXY 37 (G-37)",
        "meta_object_id": "2023-112A",
        "meta_epoch": "2025-12-12T04:02:38.642784",
        "meta_mean_motion": 1.00271537,
        "meta_eccentricity": 0.0002167,
        "meta_inclination": 0.0125,
        "meta_ra_of_asc_node": 28.474,
        "meta_arg_of_pericenter": 237.0501,
        "meta_mean_anomaly": 109.2578,
        "meta_ephemeris_type": 0,
        "meta_classification_type": "U",
        "meta_norad_cat_id": 57493,
        "meta_element_set_no": 999,
        "meta_rev_at_epoch": 866,
        "meta_bstar": 0,
        "meta_mean_motion_dot": 5.8e-07,
        "meta_mean_motion_ddot": 0,
        "tle_line1": "1 57493U 23112A   25346.16850281  .00000058  00000+0  00000+0 0  9999",
        "tle_line2": "2 57493   0.0125  28.4740 0002167 237.0501 109.2578  1.00271537  8665"
      },
      "geometry": {
        "type": "Point",
        "coordinates": [
          101.63029876163321,
          0.023849502050707534
        ]
      }
    }
  ]
}